[
    {
        "Altitude(m)": 604234.6180767042,
        "Argument of Periapsis(deg)": 0.0,
        "Eccentricity": 0.0,
        "Inclination(deg)": 60.0,
        "Latitude(deg)": 14.117286215441364,
        "Longitude(deg)": 41.72730791315583,
        "Mean Anomaly(deg)": -196.36359999999993,
        "RAAN(deg)": 330.0,
        "Satellite Name": "Test1 1462",
        "Satellite Number": 1462,
        "Semi-Major Axis(m)": 6980739.136638005,
        "Time(s)": 0
    },
    {
        "Altitude(m)": 604223.4464024623,
        "Argument of Periapsis(deg)": 0.00010418945913296404,
        "Eccentricity": 0.0,
        "Inclination(deg)": 60.0,
        "Latitude(deg)": 13.582422977305965,
        "Longitude(deg)": 42.014217914452054,
        "Mean Anomaly(deg)": -195.7434938545382,
        "RAAN(deg)": 329.9995799508602,
        "Satellite Name": "Test1 1462",
        "Satellite Number": 1462,
        "Semi-Major Axis(m)": 6980739.136638005,
        "Time(s)": 10
    }
]